#cP2022  2  5  0  0  0.00000000      96 ORBIT IGb14 HLM  IGS
## 2195 518400.00000000   900.00000000 59615 0.0000000000000
+   32   G01G02G03G04G05G06G07G08G09G10G11G12G13G14G15G16G17
+        G18G19G20G21G22G23G24G25G26G27G28G29G30G31G32  0  0
+          0  0  0  0  0  0  0  0  0  0  0  0  0  0  0  0  0
+          0  0  0  0  0  0  0  0  0  0  0  0  0  0  0  0  0
+          0  0  0  0  0  0  0  0  0  0  0  0  0  0  0  0  0
++         2  2  1  2  2  1  1  2  2  2  2  2  2  2  2  2  2
++         2  2  2  2  2  2  2  1  2  3  2  2  1  2  2  0  0
++         0  0  0  0  0  0  0  0  0  0  0  0  0  0  0  0  0
++         0  0  0  0  0  0  0  0  0  0  0  0  0  0  0  0  0
++         0  0  0  0  0  0  0  0  0  0  0  0  0  0  0  0  0
%c G  cc GPS ccc cccc cccc cccc cccc ccccc ccccc ccccc ccccc
%c cc cc ccc ccc cccc cccc cccc cccc ccccc ccccc ccccc ccccc
%f  1.2500000  1.025000000  0.00000000000  0.000000000000000
%f  0.0000000  0.000000000  0.00000000000  0.000000000000000
%i    0    0    0    0      0      0      0      0         0
%i    0    0    0    0      0      0      0      0         0
/* FINAL ORBIT COMBINATION FROM WEIGHTED AVERAGE OF:        
/* cod emr esa gfz grg jpl mit ngs sio                      
/* REFERENCED TO IGS TIME (IGST) AND TO WEIGHTED MEAN POLE: 
/* PCV:IGS14_2196 OL/AL:FES2004  NONE     Y  ORB:CMB CLK:CMB
*  2022  2  5  6 45  0.00000000
PG01  -2459.003099  16173.399281 -21122.849609    439.332570  5  6  1  95       
PG02  20500.822010 -15941.636193   6527.946973   -650.261375  4  2  4  86       
PG03   7649.945454  19592.731453 -16385.354370   -107.568847  2  3  3  61       
PG04   -110.022352  25969.134353   5364.138637   -191.359377     8  4  67       
PG05   8286.013627 -12707.169014  21638.732951    -70.356661  4  4  3  85       
PG06  24757.943011  -4438.728518  -8576.063141    191.857747  1  3  2  59       
PG07  14629.432988   9652.201922  20466.787845    307.881122  3  5  4  65       
PG08  -6323.439416  24961.347327   5690.579834    -54.934240  5  7    106       
PG09   8579.343033  20250.462831  14796.692073   -355.453211  3  3  4  69       
PG10 -23224.468708 -10577.152281  -7749.771133   -311.976988  5  6  4  69       
PG11  22797.736913 -12465.435932   5476.378157    -99.627478  5  4  5  99       
PG12  -3626.975986 -19430.836281 -18068.101406   -166.349514  7  6  4  84       
PG13  13027.636304 -20078.529200  11186.931833    256.619642  2  5  4  62       
PG14  22755.872117  11597.021840  -7419.391223    -80.046752  4  6  3  79       
PG15   3149.270342 -25725.871597   4559.843197    -86.226651  2  7  5  83       
PG16 -12782.178131   8339.033601  21515.202108   -465.350772  5  4  6 111       
PG17  13547.933842   6260.150781 -21533.165229    570.936345  4  4  6  87       
PG18 -14400.113473  -9172.832852  20369.174918    246.715761  4  7  6  61       
PG19  15478.915278  -2404.229622 -21682.174215    114.809725  2  6  5  93       
PG20  17001.678047  -6801.679686  19149.988239    516.833044     4  2  80       
PG21 -12046.091842  17849.476942 -14441.684808    157.478831  5  6  4  98       
PG22 -15577.357123   6411.161433 -20092.530356    208.924199  5  7  5  96       
PG23 -20367.721833 -16848.938251   3064.362749      4.265282  5  9  4  90       
PG24   5844.627542 -18416.352562 -18342.973438    275.839964  4  6  5  90       
PG25 -15470.084295 -19692.417478  -9547.205247    281.066324  5  5  2  85       
PG26 -21570.428121   -613.644004  15603.159090    180.542706  3  6  8 105       
PG27 -12210.853303  17931.764832  14853.143806    104.960105  4  6  5  90       
PG28  21193.306777   5985.127024 -14161.036930    407.176185  5  6  4  70       
PG29  -4637.559266 -22538.744601  13173.141092   -476.292037  4  5  3  93       
PG30  21713.995230   3186.715730  15195.797378   -511.428177  3  4  3  78       
PG31 -25502.610737   5573.869784  -6228.130253   -163.278502  5  4  3  88       
PG32 -15151.990066  -1345.349264 -21646.171614    -62.257233  5  5  4  86       
*  2022  2  5  7  0  0.00000000
PG01  -4582.146676  17059.025695 -19998.399320    439.323986  5  6  2  84       
PG02  21053.779466 -16003.278514   3750.195885   -650.262300  3  2  4  85       
PG03   5971.806709  18586.793232 -18159.981957   -107.583748  3  2  3  37       
PG04   -416.556865  26389.940484   2550.074382   -191.357539  1  8  4  58       
PG05  10394.210809 -11358.897469  21492.429287    -70.357774  4  4  2  63       
PG06  23798.931661  -3812.568566 -11170.969908    191.868202  3  4  2  77       
PG07  12563.942296  10676.550654  21284.907958    307.884055  3  5  4  63       
PG08  -6528.485636  24129.750877   8419.146466    -54.936807  5  7    104       
PG09   8264.434235  21814.354469  12597.465915   -355.451850  3  4  3  58       
PG10 -23724.072861 -11156.261021  -5012.394600   -311.986132  5  6  4  95       
PG11  23323.815143 -12409.695732   2668.658829    -99.615388  5  5  5  93       
PG12  -1926.323758 -18199.316469 -19560.003951   -166.354537  7  6  3  64       
PG13  12919.499789 -18626.027094  13557.077916    256.625432  3  5  5  62       
PG14  23152.146056  12220.777103  -4695.052165    -80.051164  4  7  2  70       
PG15   3538.488378 -25009.812653   7259.749978    -86.224079  3  7  5  93       
PG16 -14661.147128   6727.372889  20921.105985   -465.355136  5  5  6 117       
PG17  13139.815184   8744.883789 -20919.896121    570.941314  4  4  6  77       
PG18 -12258.210180 -10206.007086  21251.000496    246.708731  4  7  6  71       
PG19  15056.327935      7.088904 -22129.643787    114.814558  3  6  5 101       
PG20  18837.653083  -5721.761163  17709.580849    516.832874     3  3  72       
PG21 -13605.942977  18442.832700 -12184.688871    157.479468  5  6  4 103       
PG22 -15266.346514   3996.141887 -20939.289051    208.929332  6  7  4  99       
PG23 -19817.156609 -16758.123996   5867.156830      4.262023  4  9  5  91       
PG24   7662.942018 -19217.962667 -16718.163901    275.838739  4  5  5  78       
PG25 -14374.884408 -19189.550189 -12010.733002    281.071187  6  4  2  91       
PG26 -22881.599205  -1678.922908  13560.085928    180.545651  3  6  8  97       
PG27 -12237.077804  16065.881470  16844.876305    104.976116  4  6  5  96       
PG28  22260.298841   7159.825307 -11856.514370    407.169008  4  6  4  77       
PG29  -4258.285171 -23868.820197  10736.861232   -476.296419  4  6  4  96       
PG30  20125.882475   4118.909608  17032.193463   -511.430339  4  4  3  64       
PG31 -24824.848812   5033.413637  -8869.684885   -163.280094  4  5  3  91       
PG32 -14959.564497  -3833.537392 -21499.541054    -62.263093  5  5  3  94       
*  2022  2  5  7 15  0.00000000
PG01  -6527.344045  17995.527989 -18534.529772    439.315402  5  5  2  95       
PG02  21342.084685 -15917.918523    909.036483   -650.262819  4     4  96       
PG03   4085.271965  17578.548414 -19625.700387   -107.598562  3  2  3  74       
PG04   -682.461732  26504.864946   -308.099261   -191.355655  2  8  5  61       
PG05  12534.293112 -10140.301110  20971.192098    -70.358992  4  4  2  72       
PG06  22627.199577  -2997.121247 -13573.721760    191.878589  4  4  3  70       
PG07  10488.649902  11842.362706  21751.372580    307.886778  3  5  4  38       
PG08  -6775.207431  23007.144869  10999.785771    -54.937668  5  7  2 104       
PG09   8031.150728  23130.173932  10180.240564   -355.450326  3  5  3  69       
PG10 -23986.419094 -11543.857236  -2189.989081   -311.995303  4  6  4  69       
PG11  23562.603858 -12243.615792   -185.024377    -99.603319  4  5  5  93       
PG12    -40.266144 -16976.138502 -20723.764787   -166.359646  7  6  3  81       
PG13  12848.473014 -16915.556432  15689.989317    256.631009  4  5  5  66       
PG14  23319.936086  12650.314735  -1890.239786    -80.055491  4  7  2  69       
PG15   3992.619261 -24011.986475   9830.672381    -86.221348  4  7  5  88       
PG16 -16547.965014   5274.343725  19961.175273   -465.360000  5  5  6 109       
PG17  12874.264985  11154.698350 -19931.923140    570.946046  4  4  5  85       
PG18 -10103.838834 -11389.842710  21767.617756    246.701736  4  8  6  77       
PG19  14765.091336   2465.249333 -22205.029830    114.818995  3  6  5  93       
PG20  20558.677418  -4800.778781  15961.681775    516.832330     2  3  62       
PG21 -14900.042268  18962.660820  -9703.027327    157.480463  5  6  4 101       
PG22 -15070.867229   1493.470334 -21411.582447    208.934190  6  7  4 108       
PG23 -18992.039845 -16542.579816   8569.506121      4.258788  4  9  5  89       
PG24   9278.769013 -19998.303121 -14806.958003    275.837536  4  5  5  78       
PG25 -13029.592878 -18608.355283 -14273.421630    281.076034  6  4  3  82       
PG26 -24028.945206  -2561.221088  11285.995920    180.548724  3  6  8  94       
PG27 -12357.596790  13993.615812  18538.020466    104.992097  4  6  5  95       
PG28  23163.783317   8107.588424  -9339.824747    407.162006  3  6  4  66       
PG29  -3980.845067 -24931.425029   8114.883706   -476.300847  5  7  5  94       
PG30  18415.791189   5215.608947  18579.579312   -511.432465  3  4  2  57       
PG31 -23921.200147   4326.604508 -11363.261401   -163.281665  5  5  4  80       
PG32 -14896.039302  -6288.344963 -20979.233383    -62.268951  4  5  4  82       
EOF
